[{"OBJECT_NAME":"STARLINK-11619 [DTC]","OBJECT_ID":"2025-053H","EPOCH":"2026-03-09T12:40:30.433728","MEAN_MOTION":15.70868644,"ECCENTRICITY":0.00017331,"INCLINATION":42.9999,"RA_OF_ASC_NODE":113.2472,"ARG_OF_PERICENTER":323.8604,"MEAN_ANOMALY":36.2147,"EPHEMERIS_TYPE":0,"CLASSIFICATION_TYPE":"U","NORAD_CAT_ID":63272,"ELEMENT_SET_NO":999,"REV_AT_EPOCH":5764,"BSTAR":0.0011285227,"MEAN_MOTION_DOT":0.00147125,"MEAN_MOTION_DDOT":0},{"OBJECT_NAME":"ISS OBJECT XT","OBJECT_ID":"1998-067XT","EPOCH":"2026-03-09T23:09:29.137248","MEAN_MOTION":15.69333449,"ECCENTRICITY":0.00047012,"INCLINATION":51.6253,"RA_OF_ASC_NODE":64.2319,"ARG_OF_PERICENTER":78.1098,"MEAN_ANOMALY":282.0426,"EPHEMERIS_TYPE":0,"CLASSIFICATION_TYPE":"U","NORAD_CAT_ID":66907,"ELEMENT_SET_NO":999,"REV_AT_EPOCH":1522,"BSTAR":0.0013746382,"MEAN_MOTION_DOT":0.00167047,"MEAN_MOTION_DDOT":0}]
